AMOS-3                  
1 32794U 08022A   24361.20257542 -.00000007  00000+0  00000+0 0  9996
2 32794   0.0254 100.2531 0002674 160.6639 263.0808  1.00271750 76946
GALAXY 18 (G-18)        
1 32951U 08024A   24361.21920449  .00000054  00000+0  00000+0 0  9998
2 32951   0.0175 333.6348 0002852 299.9575 137.5187  1.00271239 40458
ZHONGXING-9             
1 33051U 08028A   24361.11903120 -.00000220  00000+0  00000+0 0  9996
2 33051   0.0203  61.3999 0004257 236.8179 291.9439  1.00272142 60642
SKYNET 5C               
1 33055U 08030A   24361.20778517 -.00000113  00000+0  00000+0 0  9994
2 33055   2.4039  83.3306 0004895 203.3916 225.4578  1.00271403 60567
TURKSAT 3A              
1 33056U 08030B   24360.25150737  .00000172  00000+0  00000+0 0  9991
2 33056   0.0397 103.9154 0002664 167.5930 315.2904  1.00274086 46956
INTELSAT 25 (IS-25)     
1 33153U 08034A   24361.23736253 -.00000196  00000+0  00000+0 0  9992
2 33153   1.3168  87.0351 0002973 192.5693 229.5733  1.00272772 60304
BADR-6                  
1 33154U 08034B   24361.19285608 -.00000189  00000+0  00000+0 0  9993
2 33154   1.4586  85.3663 0004849 302.6131 307.3363  0.98748131 60354
ECHOSTAR 11             
1 33207U 08035A   24360.30136560 -.00000030  00000+0  00000+0 0  9992
2 33207   0.0120  46.9774 0002272 229.3465 176.4693  1.00272220 45811
SUPERBIRD-C2            
1 33274U 08038A   24360.63135949 -.00000225  00000+0  00000+0 0  9991
2 33274   0.9679  88.2806 0001665 199.6130 177.9553  1.00270811100335
AMC-21                  
1 33275U 08038B   24361.29266830  .00000064  00000+0  00000+0 0  9999
2 33275   1.5563  87.2604 0002679 192.2509 156.2214  1.00271286 60094
INMARSAT 4-F3           
1 33278U 08039A   24361.22415668 -.00000115  00000+0  00000+0 0  9999
2 33278   3.8514  28.8815 0003036 250.2396 158.7802  1.00270542 41150
NIMIQ 4                 
1 33373U 08044A   24361.24702189 -.00000192  00000+0  00000+0 0  9995
2 33373   0.0462  63.3788 0001917 244.6735 154.1498  1.00268705 59596
GALAXY 19 (G-19)        
1 33376U 08045A   24360.45170891 -.00000112  00000+0  00000+0 0  9992
2 33376   0.0232 290.0870 0002826 356.6723 233.3104  1.00271962 59500
ASTRA 1M                
1 33436U 08057A   24358.10374156  .00000139  00000+0  00000+0 0  9999
2 33436   0.0423  75.1654 0002121 148.3663 285.1264  1.00269781 40315
EUTELSAT HOTBIRD 13C    
1 33459U 08065A   24361.20778517 -.00000073  00000+0  00000+0 0  9995
2 33459   1.5614  85.4461 0006552 190.3731 241.6712  1.00271889 41951
EXPRESS-AM44            
1 33595U 09007A   24361.20778517 -.00000062  00000+0  00000+0 0  9991
2 33595   2.0746  85.0318 0004621 191.0281 242.9336  1.00271969 46897
NSS-9                   
1 33749U 09008A   24361.20851819  .00000100  00000+0  00000+0 0  9992
2 33749   0.0217  32.8990 0002100 248.0709  72.3642  1.00273292 58128
TELSTAR 11N             
1 34111U 09009A   24361.28607323 -.00000222  00000+0  00000+0 0  9990
2 34111   0.0032  83.9302 0002304 181.2218 255.5686  1.00270266 40852
WGS F2 (USA 204)        
1 34713U 09017A   24360.46902076  .00000095  00000+0  00000+0 0  9996
2 34713   0.0167  19.7721 0000145  49.4562 251.5835  1.00269584 40212
SES-7 (PROTOSTAR 2)     
1 34941U 09027A   24361.26507745 -.00000317  00000+0  00000+0 0  9991
2 34941   0.0359  59.5864 0002230 212.2421  27.1075  1.00271302 57233
MEASAT-3A               
1 35362U 09032A   24361.20391352 -.00000083  00000+0  00000+0 0  9994
2 35362   0.0095  27.2257 0002765 263.8525  37.4630  1.00271438  2631
GOES 14                 
1 35491U 09033A   24361.31441649 -.00000039  00000+0  00000+0 0  9996
2 35491   0.2861  91.0037 0002426 135.2462 233.8881  1.00274437  1202
FM-5                    
1 35493U 09034A   24361.24702189 -.00000171  00000+0  00000+0 0  9997
2 35493   0.0172 334.0682 0001425 184.4505 299.5022  1.00270781 41258
TERRESTAR-1             
1 35496U 09035A   24361.22155027 -.00000032  00000+0  00000+0 0  9998
2 35496   4.7605  48.2670 0002988 230.1001 145.5941  1.00271537 56749
ASIASAT 5               
1 35696U 09042A   24361.26342674 -.00000278  00000+0  00000+0 0  9990
2 35696   0.0260  41.7330 0001754 258.0199 350.8462  1.00262656 56319
JCSAT-12 (JCSAT-RA)     
1 35755U 09044A   24359.91211421 -.00000303  00000+0  00000+0 0  9991
2 35755   0.0679  90.1129 0000137 353.2059 111.0130  1.00268503 56204
OPTUS D3                
1 35756U 09044B   24361.20396444 -.00000119  00000+0  00000+0 0  9991
2 35756   0.5052  85.7794 0004518 212.7704  26.0689  1.00271968 56164
NIMIQ 5                 
1 35873U 09050A   24361.22919575 -.00000228  00000+0  00000+0 0  9997
2 35873   0.0142 302.5735 0002549 326.4253 196.0305  1.00271484 55950
AMAZONAS 2              
1 35942U 09054A   24361.23154153 -.00000254  00000+0  00000+0 0  9991
2 35942   0.4194  91.8390 0003820 185.5125 200.4352  1.00271604 55796
COMSATBW-1              
1 35943U 09054B   24361.11321021  .00000052  00000+0  00000+0 0  9994
2 35943   0.0825  72.5823 0003422 206.8964 279.3751  1.00273592 55906
NSS-12                  
1 36032U 09058A   24361.18332282  .00000099  00000+0  00000+0 0  9997
2 36032   0.0531 292.7293 0003623 338.2301 307.2188  1.00273029 55523
THOR 6                  
1 36033U 09058B   24361.20257542  .00000019  00000+0  00000+0 0  9998
2 36033   0.0198 266.5270 0002383  43.6653 217.0816  1.00272651 55612
INTELSAT 14 (IS-14)     
1 36097U 09064A   24361.23466924 -.00000245  00000+0  00000+0 0  9996
2 36097   0.0097  19.9058 0002297 259.4582 215.3336  1.00269994 55216
EUTELSAT 36B            
1 36101U 09065A   24361.25360921  .00000140  00000+0  00000+0 0  9998
2 36101   0.0618   1.7717 0005822 288.4275 306.8177  1.00272169 55318
INTELSAT 15 (IS-15)     
1 36106U 09067A   24361.17306234 -.00000157  00000+0  00000+0 0  9992
2 36106   0.0153 324.5842 0002158 318.9390 319.0842  1.00273313 35830
WGS F3 (USA 211)        
1 36108U 09068A   24360.77897545  .00000078  00000+0  00000+0 0  9991
2 36108   0.1817  89.2687 0000746  91.9575  13.7809  1.00264618 41203
DIRECTV 12              
1 36131U 09075A   24360.86207853 -.00000075  00000+0  00000+0 0  9990
2 36131   0.0148 166.2485 0000406 168.3031 327.9234  1.00269276 41157
BEIDOU-2 G1             
1 36287U 10001A   24361.29129432 -.00000255  00000+0  00000+0 0  9997
2 36287   3.0438  59.9978 0005232 266.9692  13.5777  1.00268482 54779
RADUGA-1M 2             
1 36358U 10002A   24361.04605453 -.00000158  00000+0  00000+0 0  9994
2 36358   2.2169  85.8881 0004737 198.0970 272.6392  1.00272007 44693
SDO                     
1 36395U 10005A   24360.28382152 -.00000067  00000+0  00000+0 0  9990
2 36395  33.5225  94.6166 0001765 186.7150 173.2176  1.00270424 54654
INTELSAT 16 (IS-16)     
1 36397U 10006A   24361.22850073 -.00000216  00000+0  00000+0 0  9996
2 36397   0.0103  27.7235 0002013 246.4256 187.1292  1.00272566 54261
EWS-G2 (GOES 15)        
1 36411U 10008A   24361.11286269  .00000066  00000+0  00000+0 0  9995
2 36411   0.1040 270.0405 0006189 348.2411 298.8385  1.00272177 54242
ECHOSTAR 14             
1 36499U 10010A   24360.71980977  .00000028  00000+0  00000+0 0  9994
2 36499   0.0183 337.4038 0002091 290.6238 326.9240  1.00272978 41158
SES-1                   
1 36516U 10016A   24360.65178228 -.00000087  00000+0  00000+0 0  9997
2 36516   0.0317 303.9795 0002681 341.9464 302.3623  1.00271263 53636
ASTRA 3B                
1 36581U 10021A   24361.24822262  .00000166  00000+0  00000+0 0  9992
2 36581   0.0789  95.9185 0002071 181.6614 290.5051  1.00272799 53471
COMSATBW-2              
1 36582U 10021B   24360.81746353  .00000117  00000+0  00000+0 0  9997
2 36582   0.0358  92.4146 0001344 179.9412 129.8997  1.00283969 53554
BEIDOU-2 G3             
1 36590U 10024A   24360.54486750 -.00000109  00000+0  00000+0 0  9993
2 36590   3.2456  62.1514 0006009 310.6090 357.4353  1.00269243 53362
BADR-5                  
1 36592U 10025A   24361.10582535  .00000173  00000+0  00000+0 0  9997
2 36592   0.0446 165.6936 0002876  57.2870 296.2240  1.00274998 47825
COMS 1                  
1 36744U 10032A   24361.26907396 -.00000319  00000+0  00000+0 0  9990
2 36744   3.4356  82.4461 0000840 221.6197  16.2278  1.00270995 45695
ARABSAT-5A              
1 36745U 10032B   24361.17819688  .00000182  00000+0  00000+0 0  9994
2 36745   0.0646  49.3812 0002538 233.6410 266.7733  1.00270234 53255
ECHOSTAR 15             
1 36792U 10034A   24361.23136778 -.00000253  00000+0  00000+0 0  9997
2 36792   0.0198  60.8066 0001891 190.8996 225.1365  1.00269234 52934
BEIDOU-2 IGSO-1         
1 36828U 10036A   24361.29877265 -.00000025  00000+0  00000+0 0  9995
2 36828  54.2637 167.8243 0043234 205.9285 296.6017  1.00275390 52706
NILESAT 201             
1 36830U 10037A   24361.07341097 -.00000029  00000+0  00000+0 0  9998
2 36830   0.0295 139.3539 0004472 124.0870 211.0272  1.00272341 52978
RASCOM-QAF 1R           
1 36831U 10037B   24361.24413924  .00000047  00000+0  00000+0 0  9996
2 36831   0.0431  92.6117 0006753 178.9541 274.4431  1.00271415 52905
AEHF-1 (USA 214)        
1 36868U 10039A   24360.86299367  .00000171  00000+0  00000+0 0  9996
2 36868   6.8716  74.9189 0003613 198.0083 162.5168  1.00272246 48264
XM-5                    
1 37185U 10053A   24360.29187125  .00000004  00000+0  00000+0 0  9995
2 37185   0.0181  17.5482 0000658 132.2601 294.3637  1.00271032 52082
BSAT-3B                 
1 37207U 10056B   24359.75327258 -.00000325  00000+0  00000+0 0  9992
2 37207   0.0551 306.7337 0004803   2.7832 165.2432  1.00269278 46703
BEIDOU-2 G4             
1 37210U 10057A   24361.22496166 -.00000086  00000+0  00000+0 0  9991
2 37210   2.3127  70.2857 0009327 189.5180  76.4246  1.00271868 51897
SKYTERRA 1              
1 37218U 10061A   24361.29172028 -.00000093  00000+0  00000+0 0  9997
2 37218   3.9979  49.7988 0004060 195.8399 213.3350  1.00272008 51800
